{"type": "FeatureCollection", "features": [ {"type": "Feature", "properties": {"norad_id": 39122, "name": "EUTELSAT 117 WEST A", "group": "eutelsat", "lat": 0.0029441926229334236, "lon": 149.1493192698413, "alt_km": 35792.911829490644, "timestamp": "2025-12-23T11:34:47.852845+00:00", "meta": {"OBJECT_NAME": "EUTELSAT 117 WEST A", "OBJECT_ID": "2013-012A", "EPOCH": "2025-12-23T03:22:56.440128", "MEAN_MOTION": 1.00270834, "ECCENTRICITY": 0.0002648, "INCLINATION": 0.0239, "RA_OF_ASC_NODE": 311.3216, "ARG_OF_PERICENTER": 323.7158, "MEAN_ANOMALY": 110.8436, "EPHEMERIS_TYPE": 0, "CLASSIFICATION_TYPE": "U", "NORAD_CAT_ID": 39122, "ELEMENT_SET_NO": 999, "REV_AT_EPOCH": 4666, "BSTAR": 0, "MEAN_MOTION_DOT": 8e-08, "MEAN_MOTION_DDOT": 0}, "tle": {"line1": "1 39122U 13012A   25357.14093102  .00000008  00000+0  00000+0 0  9992", "line2": "2 39122   0.0239 311.3216 0002648 323.7158 110.8436  1.00270834 46669"}}, "geometry": {"type": "Point", "coordinates": [149.1493192698413, 0.0029441926229334236]}}, {"type": "Feature", "properties": {"norad_id": 39163, "name": "EUTELSAT 7B", "group": "eutelsat", "lat": -0.08942136110705412, "lon": -87.08194011416956, "alt_km": 35773.84846816191, "timestamp": "2025-12-23T11:34:47.852856+00:00", "meta": {"OBJECT_NAME": "EUTELSAT 7B", "OBJECT_ID": "2013-022A", "EPOCH": "2025-12-23T02:53:37.732704", "MEAN_MOTION": 1.00271334, "ECCENTRICITY": 0.0004482, "INCLINATION": 0.0653, "RA_OF_ASC_NODE": 4.8865, "ARG_OF_PERICENTER": 317.4928, "MEAN_ANOMALY": 179.9359, "EPHEMERIS_TYPE": 0, "CLASSIFICATION_TYPE": "U", "NORAD_CAT_ID": 39163, "ELEMENT_SET_NO": 999, "REV_AT_EPOCH": 4618, "BSTAR": 0, "MEAN_MOTION_DOT": 6.9e-07, "MEAN_MOTION_DDOT": 0}, "tle": {"line1": "1 39163U 13022A   25357.12057561  .00000069  00000+0  00000+0 0  9992", "line2": "2 39163   0.0653   4.8865 0004482 317.4928 179.9359  1.00271334 46184"}}, "geometry": {"type": "Point", "coordinates": [-87.08194011416956, -0.08942136110705412]}}, {"type": "Feature", "properties": {"norad_id": 39612, "name": "EXPRESS-AT1", "group": "eutelsat", "lat": -0.02432418654559155, "lon": -38.04098734353355, "alt_km": 35789.131424443236, "timestamp": "2025-12-23T11:34:47.852871+00:00", "meta": {"OBJECT_NAME": "EXPRESS-AT1", "OBJECT_ID": "2014-010A", "EPOCH": "2025-12-22T10:00:26.265888", "MEAN_MOTION": 1.00271252, "ECCENTRICITY": 7.176e-05, "INCLINATION": 0.023, "RA_OF_ASC_NODE": 347.1334, "ARG_OF_PERICENTER": 146.8279, "MEAN_ANOMALY": 163.3666, "EPHEMERIS_TYPE": 0, "CLASSIFICATION_TYPE": "U", "NORAD_CAT_ID": 39612, "ELEMENT_SET_NO": 999, "REV_AT_EPOCH": 4304, "BSTAR": 0, "MEAN_MOTION_DOT": 0, "MEAN_MOTION_DDOT": 0}, "tle": {"line1": "1 39612U 14010A   25356.41697067  .00000000  00000+0  00000+0 0  9996", "line2": "2 39612   0.0230 347.1334 0000717 146.8279 163.3666  1.00271252 43047"}}, "geometry": {"type": "Point", "coordinates": [-38.04098734353355, -0.02432418654559155]}}, {"type": "Feature", "properties": {"norad_id": 39613, "name": "EXPRESS-AT2", "group": "eutelsat", "lat": 0.02109598733240385, "lon": 45.837386425325754, "alt_km": 35789.05562684189, "timestamp": "2025-12-23T11:34:47.852889+00:00", "meta": {"OBJECT_NAME": "EXPRESS-AT2", "OBJECT_ID": "2014-010B", "EPOCH": "2025-12-23T05:14:16.712736", "MEAN_MOTION": 1.00273512, "ECCENTRICITY": 0.0001469, "INCLINATION": 0.015, "RA_OF_ASC_NODE": 297.8431, "ARG_OF_PERICENTER": 344.6233, "MEAN_ANOMALY": 27.9718, "EPHEMERIS_TYPE": 0, "CLASSIFICATION_TYPE": "U", "NORAD_CAT_ID": 39613, "ELEMENT_SET_NO": 999, "REV_AT_EPOCH": 4273, "BSTAR": 0, "MEAN_MOTION_DOT": -2.6e-06, "MEAN_MOTION_DDOT": 0}, "tle": {"line1": "1 39613U 14010B   25357.21824899 -.00000260  00000+0  00000+0 0  9990", "line2": "2 39613   0.0150 297.8431 0001469 344.6233  27.9718  1.00273512 42730"}}, "geometry": {"type": "Point", "coordinates": [45.837386425325754, 0.02109598733240385]}}, {"type": "Feature", "properties": {"norad_id": 39773, "name": "EUTELSAT 3B", "group": "eutelsat", "lat": -0.08288087629140438, "lon": -90.89870049522258, "alt_km": 35771.52980855052, "timestamp": "2025-12-23T11:34:47.852912+00:00", "meta": {"OBJECT_NAME": "EUTELSAT 3B", "OBJECT_ID": "2014-030A", "EPOCH": "2025-12-23T02:52:30.339840", "MEAN_MOTION": 1.0027233, "ECCENTRICITY": 0.0004297, "INCLINATION": 0.062, "RA_OF_ASC_NODE": 344.888, "ARG_OF_PERICENTER": 246.4665, "MEAN_ANOMALY": 266.7925, "EPHEMERIS_TYPE": 0, "CLASSIFICATION_TYPE": "U", "NORAD_CAT_ID": 39773, "ELEMENT_SET_NO": 999, "REV_AT_EPOCH": 4230, "BSTAR": 0, "MEAN_MOTION_DOT": 4.1e-07, "MEAN_MOTION_DDOT": 0}, "tle": {"line1": "1 39773U 14030A   25357.11979560  .00000041  00000+0  00000+0 0  9990", "line2": "2 39773   0.0620 344.8880 0004297 246.4665 266.7925  1.00272330 42303"}}, "geometry": {"type": "Point", "coordinates": [-90.89870049522258, -0.08288087629140438]}}, {"type": "Feature", "properties": {"norad_id": 40425, "name": "EUTELSAT 115 WEST B", "group": "eutelsat", "lat": -0.00444187849738919, "lon": 151.0416366234722, "alt_km": 35787.544682051564, "timestamp": "2025-12-23T11:34:47.852923+00:00", "meta": {"OBJECT_NAME": "EUTELSAT 115 WEST B", "OBJECT_ID": "2015-010B", "EPOCH": "2025-12-22T10:47:31.232256", "MEAN_MOTION": 1.00269855, "ECCENTRICITY": 2.522e-05, "INCLINATION": 0.0093, "RA_OF_ASC_NODE": 153.5517, "ARG_OF_PERICENTER": 151.4988, "MEAN_ANOMALY": 193.1685, "EPHEMERIS_TYPE": 0, "CLASSIFICATION_TYPE": "U", "NORAD_CAT_ID": 40425, "ELEMENT_SET_NO": 999, "REV_AT_EPOCH": 3962, "BSTAR": 0, "MEAN_MOTION_DOT": -3e-08, "MEAN_MOTION_DDOT": 0}, "tle": {"line1": "1 40425U 15010B   25356.44966704 -.00000003  00000+0  00000+0 0  9995", "line2": "2 40425   0.0093 153.5517 0000252 151.4988 193.1685  1.00269855 39620"}}, "geometry": {"type": "Point", "coordinates": [151.0416366234722, -0.00444187849738919]}}, {"type": "Feature", "properties": {"norad_id": 40875, "name": "EUTELSAT 8 WEST B", "group": "eutelsat", "lat": -0.08382004721996916, "lon": -102.04871239774221, "alt_km": 35768.870143596614, "timestamp": "2025-12-23T11:34:47.852934+00:00", "meta": {"OBJECT_NAME": "EUTELSAT 8 WEST B", "OBJECT_ID": "2015-039B", "EPOCH": "2025-12-23T02:49:23.140416", "MEAN_MOTION": 1.00271203, "ECCENTRICITY": 0.0004246, "INCLINATION": 0.0636, "RA_OF_ASC_NODE": 4.3025, "ARG_OF_PERICENTER": 268.5481, "MEAN_ANOMALY": 213.4081, "EPHEMERIS_TYPE": 0, "CLASSIFICATION_TYPE": "U", "NORAD_CAT_ID": 40875, "ELEMENT_SET_NO": 999, "REV_AT_EPOCH": 3789, "BSTAR": 0, "MEAN_MOTION_DOT": -4.4e-07, "MEAN_MOTION_DDOT": 0}, "tle": {"line1": "1 40875U 15039B   25357.11762894 -.00000044  00000+0  00000+0 0  9999", "line2": "2 40875   0.0636   4.3025 0004246 268.5481 213.4081  1.00271203 37897"}}, "geometry": {"type": "Point", "coordinates": [-102.04871239774221, -0.08382004721996916]}}, {"type": "Feature", "properties": {"norad_id": 41310, "name": "EUTELSAT 9B", "group": "eutelsat", "lat": -0.046565833430715714, "lon": -85.02722124114497, "alt_km": 35766.517165917096, "timestamp": "2025-12-23T11:34:47.852945+00:00", "meta": {"OBJECT_NAME": "EUTELSAT 9B", "OBJECT_ID": "2016-005A", "EPOCH": "2025-12-22T03:54:38.524896", "MEAN_MOTION": 1.00273048, "ECCENTRICITY": 0.0004511, "INCLINATION": 0.0657, "RA_OF_ASC_NODE": 72.7349, "ARG_OF_PERICENTER": 203.4472, "MEAN_ANOMALY": 242.4516, "EPHEMERIS_TYPE": 0, "CLASSIFICATION_TYPE": "U", "NORAD_CAT_ID": 41310, "ELEMENT_SET_NO": 999, "REV_AT_EPOCH": 3634, "BSTAR": 0, "MEAN_MOTION_DOT": 8.4e-07, "MEAN_MOTION_DDOT": 0}, "tle": {"line1": "1 41310U 16005A   25356.16294589  .00000084  00000+0  00000+0 0  9996", "line2": "2 41310   0.0657  72.7349 0004511 203.4472 242.4516  1.00273048 36349"}}, "geometry": {"type": "Point", "coordinates": [-85.02722124114497, -0.046565833430715714]}}, {"type": "Feature", "properties": {"norad_id": 41382, "name": "EUTELSAT 65 WEST A", "group": "eutelsat", "lat": -0.040054933700764, "lon": -159.2441365565605, "alt_km": 35783.27335346811, "timestamp": "2025-12-23T11:34:47.852956+00:00", "meta": {"OBJECT_NAME": "EUTELSAT 65 WEST A", "OBJECT_ID": "2016-014A", "EPOCH": "2025-12-23T02:33:02.204928", "MEAN_MOTION": 1.00272915, "ECCENTRICITY": 0.000219, "INCLINATION": 0.0501, "RA_OF_ASC_NODE": 338.7434, "ARG_OF_PERICENTER": 296.1376, "MEAN_ANOMALY": 150.0935, "EPHEMERIS_TYPE": 0, "CLASSIFICATION_TYPE": "U", "NORAD_CAT_ID": 41382, "ELEMENT_SET_NO": 999, "REV_AT_EPOCH": 3577, "BSTAR": 0, "MEAN_MOTION_DOT": -2.55e-06, "MEAN_MOTION_DDOT": 0}, "tle": {"line1": "1 41382U 16014A   25357.10627552 -.00000255  00000+0  00000+0 0  9991", "line2": "2 41382   0.0501 338.7434 0002190 296.1376 150.0935  1.00272915 35776"}}, "geometry": {"type": "Point", "coordinates": [-159.2441365565605, -0.040054933700764]}}, {"type": "Feature", "properties": {"norad_id": 41589, "name": "EUTELSAT 117 WEST B", "group": "eutelsat", "lat": -0.004976313571622139, "lon": 148.95611096709558, "alt_km": 35786.34464018509, "timestamp": "2025-12-23T11:34:47.852967+00:00", "meta": {"OBJECT_NAME": "EUTELSAT 117 WEST B", "OBJECT_ID": "2016-038B", "EPOCH": "2025-12-23T03:22:56.461728", "MEAN_MOTION": 1.0027203, "ECCENTRICITY": 2.28e-05, "INCLINATION": 0.0093, "RA_OF_ASC_NODE": 153.2648, "ARG_OF_PERICENTER": 106.313, "MEAN_ANOMALY": 126.0863, "EPHEMERIS_TYPE": 0, "CLASSIFICATION_TYPE": "U", "NORAD_CAT_ID": 41589, "ELEMENT_SET_NO": 999, "REV_AT_EPOCH": 3489, "BSTAR": 0, "MEAN_MOTION_DOT": 1e-07, "MEAN_MOTION_DDOT": 0}, "tle": {"line1": "1 41589U 16038B   25357.14093127  .00000010  00000+0  00000+0 0  9993", "line2": "2 41589   0.0093 153.2648 0000228 106.3130 126.0863  1.00272030 34891"}}, "geometry": {"type": "Point", "coordinates": [148.95611096709558, -0.004976313571622139]}}]}